XRISM                   
1 57800U 23137A   24074.17210963  .00004267  00000+0  32919-3 0  9997
2 57800  31.0023 256.8350 0010236 347.8907  12.1481 14.99901515 28326
